{"fetched_at":"2026-07-14T06:34:23.487Z","source":"https://celestrak.org/NORAD/elements/gp.php?GROUP=planet&FORMAT=JSON","constellation":"superdove","records":[{"OBJECT_NAME":"FLOCK 4G-23","OBJECT_ID":"2025-009AQ","EPOCH":"2026-07-13T17:29:03.350400","CLASSIFICATION_TYPE":"U","MEAN_MOTION":15.34689695,"ECCENTRICITY":0.0003148,"INCLINATION":97.3933,"RA_OF_ASC_NODE":276.414,"ARG_OF_PERICENTER":175.4511,"MEAN_ANOMALY":184.6762,"EPHEMERIS_TYPE":0,"NORAD_CAT_ID":62647,"ELEMENT_SET_NO":999,"REV_AT_EPOCH":8299,"BSTAR":0.0006759,"MEAN_MOTION_DOT":0.00022688,"MEAN_MOTION_DDOT":0},{"OBJECT_NAME":"FLOCK 4G-34","OBJECT_ID":"2025-009AT","EPOCH":"2026-07-13T18:03:38.339712","CLASSIFICATION_TYPE":"U","MEAN_MOTION":15.29758699,"ECCENTRICITY":0.0002221,"INCLINATION":97.3968,"RA_OF_ASC_NODE":276.2092,"ARG_OF_PERICENTER":167.0493,"MEAN_ANOMALY":193.0805,"EPHEMERIS_TYPE":0,"NORAD_CAT_ID":62650,"ELEMENT_SET_NO":999,"REV_AT_EPOCH":8297,"BSTAR":0.00021357,"MEAN_MOTION_DOT":0.0000608,"MEAN_MOTION_DDOT":0},{"OBJECT_NAME":"FLOCK 4G-21","OBJECT_ID":"2025-009AU","EPOCH":"2026-07-13T17:45:19.933056","CLASSIFICATION_TYPE":"U","MEAN_MOTION":15.32804786,"ECCENTRICITY":0.0003098,"INCLINATION":97.3996,"RA_OF_ASC_NODE":277.1919,"ARG_OF_PERICENTER":194.4712,"MEAN_ANOMALY":165.6441,"EPHEMERIS_TYPE":0,"NORAD_CAT_ID":62651,"ELEMENT_SET_NO":999,"REV_AT_EPOCH":8302,"BSTAR":0.00064445,"MEAN_MOTION_DOT":0.00020373,"MEAN_MOTION_DDOT":0},{"OBJECT_NAME":"FLOCK 4G-31","OBJECT_ID":"2025-009AV","EPOCH":"2026-07-13T18:46:26.139072","CLASSIFICATION_TYPE":"U","MEAN_MOTION":15.29562544,"ECCENTRICITY":0.0001765,"INCLINATION":97.3973,"RA_OF_ASC_NODE":276.2109,"ARG_OF_PERICENTER":159.9108,"MEAN_ANOMALY":200.2202,"EPHEMERIS_TYPE":0,"NORAD_CAT_ID":62652,"ELEMENT_SET_NO":999,"REV_AT_EPOCH":8297,"BSTAR":0.00021806,"MEAN_MOTION_DOT":0.00006172,"MEAN_MOTION_DDOT":0},{"OBJECT_NAME":"FLOCK 4G-4","OBJECT_ID":"2025-009BC","EPOCH":"2026-07-13T18:10:10.365024","CLASSIFICATION_TYPE":"U","MEAN_MOTION":15.32082621,"ECCENTRICITY":0.0004397,"INCLINATION":97.3957,"RA_OF_ASC_NODE":275.992,"ARG_OF_PERICENTER":196.9018,"MEAN_ANOMALY":163.2078,"EPHEMERIS_TYPE":0,"NORAD_CAT_ID":62659,"ELEMENT_SET_NO":999,"REV_AT_EPOCH":14057,"BSTAR":0.00064713,"MEAN_MOTION_DOT":0.00020003,"MEAN_MOTION_DDOT":0},{"OBJECT_NAME":"FLOCK 4G-6","OBJECT_ID":"2025-009BD","EPOCH":"2026-07-13T18:31:22.164384","CLASSIFICATION_TYPE":"U","MEAN_MOTION":15.29961553,"ECCENTRICITY":0.0002759,"INCLINATION":97.3946,"RA_OF_ASC_NODE":276.0522,"ARG_OF_PERICENTER":206.4041,"MEAN_ANOMALY":153.706,"EPHEMERIS_TYPE":0,"NORAD_CAT_ID":62660,"ELEMENT_SET_NO":999,"REV_AT_EPOCH":14056,"BSTAR":0.00020527,"MEAN_MOTION_DOT":0.00005878,"MEAN_MOTION_DDOT":0},{"OBJECT_NAME":"FLOCK 4G-2","OBJECT_ID":"2025-009BE","EPOCH":"2026-07-13T18:22:37.223040","CLASSIFICATION_TYPE":"U","MEAN_MOTION":15.30310499,"ECCENTRICITY":0.0003578,"INCLINATION":97.4014,"RA_OF_ASC_NODE":276.686,"ARG_OF_PERICENTER":207.4662,"MEAN_ANOMALY":152.639,"EPHEMERIS_TYPE":0,"NORAD_CAT_ID":62661,"ELEMENT_SET_NO":999,"REV_AT_EPOCH":14059,"BSTAR":0.00021777,"MEAN_MOTION_DOT":0.00006309,"MEAN_MOTION_DDOT":0},{"OBJECT_NAME":"FLOCK 4G-5","OBJECT_ID":"2025-009BG","EPOCH":"2026-07-12T18:44:12.766848","CLASSIFICATION_TYPE":"U","MEAN_MOTION":15.30881733,"ECCENTRICITY":0.0003232,"INCLINATION":97.403,"RA_OF_ASC_NODE":276.1016,"ARG_OF_PERICENTER":189.2168,"MEAN_ANOMALY":170.9014,"EPHEMERIS_TYPE":0,"NORAD_CAT_ID":62663,"ELEMENT_SET_NO":999,"REV_AT_EPOCH":8285,"BSTAR":0.0002198482,"MEAN_MOTION_DOT":0.00006484,"MEAN_MOTION_DDOT":0},{"OBJECT_NAME":"FLOCK 4G-1","OBJECT_ID":"2025-009BK","EPOCH":"2026-07-13T18:00:40.365216","CLASSIFICATION_TYPE":"U","MEAN_MOTION":15.30170775,"ECCENTRICITY":0.0003858,"INCLINATION":97.4028,"RA_OF_ASC_NODE":276.6498,"ARG_OF_PERICENTER":204.2394,"MEAN_ANOMALY":155.8665,"EPHEMERIS_TYPE":0,"NORAD_CAT_ID":62666,"ELEMENT_SET_NO":999,"REV_AT_EPOCH":8297,"BSTAR":0.00020624,"MEAN_MOTION_DOT":0.00005945,"MEAN_MOTION_DDOT":0},{"OBJECT_NAME":"FLOCK 4G-14","OBJECT_ID":"2025-009BL","EPOCH":"2026-07-13T18:44:51.086112","CLASSIFICATION_TYPE":"U","MEAN_MOTION":15.29717082,"ECCENTRICITY":0.0004028,"INCLINATION":97.403,"RA_OF_ASC_NODE":276.4779,"ARG_OF_PERICENTER":198.9013,"MEAN_ANOMALY":161.2078,"EPHEMERIS_TYPE":0,"NORAD_CAT_ID":62667,"ELEMENT_SET_NO":999,"REV_AT_EPOCH":8296,"BSTAR":0.00022315,"MEAN_MOTION_DOT":0.00006349,"MEAN_MOTION_DDOT":0},{"OBJECT_NAME":"FLOCK 4G-10","OBJECT_ID":"2025-009BP","EPOCH":"2026-07-13T19:00:42.204960","CLASSIFICATION_TYPE":"U","MEAN_MOTION":15.2981961,"ECCENTRICITY":0.0003537,"INCLINATION":97.3929,"RA_OF_ASC_NODE":275.7882,"ARG_OF_PERICENTER":218.5153,"MEAN_ANOMALY":141.5836,"EPHEMERIS_TYPE":0,"NORAD_CAT_ID":62670,"ELEMENT_SET_NO":999,"REV_AT_EPOCH":14060,"BSTAR":0.00022561,"MEAN_MOTION_DOT":0.0000644,"MEAN_MOTION_DDOT":0},{"OBJECT_NAME":"FLOCK 4G-36","OBJECT_ID":"2025-009BU","EPOCH":"2026-07-13T18:52:47.169120","CLASSIFICATION_TYPE":"U","MEAN_MOTION":15.29791839,"ECCENTRICITY":0.0004183,"INCLINATION":97.4017,"RA_OF_ASC_NODE":276.405,"ARG_OF_PERICENTER":205.0601,"MEAN_ANOMALY":155.0437,"EPHEMERIS_TYPE":0,"NORAD_CAT_ID":62675,"ELEMENT_SET_NO":999,"REV_AT_EPOCH":8296,"BSTAR":0.00022946,"MEAN_MOTION_DOT":0.00006546,"MEAN_MOTION_DDOT":0},{"OBJECT_NAME":"FLOCK 4G-15","OBJECT_ID":"2025-009BX","EPOCH":"2026-07-13T19:02:53.344608","CLASSIFICATION_TYPE":"U","MEAN_MOTION":15.29882248,"ECCENTRICITY":0.000444,"INCLINATION":97.4021,"RA_OF_ASC_NODE":276.5545,"ARG_OF_PERICENTER":201.868,"MEAN_ANOMALY":158.2371,"EPHEMERIS_TYPE":0,"NORAD_CAT_ID":62678,"ELEMENT_SET_NO":999,"REV_AT_EPOCH":14061,"BSTAR":0.00022532,"MEAN_MOTION_DOT":0.00006444,"MEAN_MOTION_DDOT":0},{"OBJECT_NAME":"FLOCK 4G-30","OBJECT_ID":"2025-009BY","EPOCH":"2026-07-13T17:46:37.064064","CLASSIFICATION_TYPE":"U","MEAN_MOTION":15.33880266,"ECCENTRICITY":0.0004263,"INCLINATION":97.3923,"RA_OF_ASC_NODE":276.017,"ARG_OF_PERICENTER":200.597,"MEAN_ANOMALY":159.5101,"EPHEMERIS_TYPE":0,"NORAD_CAT_ID":62679,"ELEMENT_SET_NO":999,"REV_AT_EPOCH":14061,"BSTAR":0.00067082,"MEAN_MOTION_DOT":0.00021948,"MEAN_MOTION_DDOT":0},{"OBJECT_NAME":"FLOCK 4G-18","OBJECT_ID":"2025-009BZ","EPOCH":"2026-07-13T18:04:57.451008","CLASSIFICATION_TYPE":"U","MEAN_MOTION":15.32140614,"ECCENTRICITY":0.0006061,"INCLINATION":97.4014,"RA_OF_ASC_NODE":276.4277,"ARG_OF_PERICENTER":215.4988,"MEAN_ANOMALY":144.5851,"EPHEMERIS_TYPE":0,"NORAD_CAT_ID":62680,"ELEMENT_SET_NO":999,"REV_AT_EPOCH":14060,"BSTAR":0.00066394,"MEAN_MOTION_DOT":0.00020568,"MEAN_MOTION_DDOT":0},{"OBJECT_NAME":"FLOCK 4G-17","OBJECT_ID":"2025-009CA","EPOCH":"2026-07-13T18:06:57.223008","CLASSIFICATION_TYPE":"U","MEAN_MOTION":15.30065522,"ECCENTRICITY":0.0003806,"INCLINATION":97.3927,"RA_OF_ASC_NODE":275.9877,"ARG_OF_PERICENTER":219.4865,"MEAN_ANOMALY":140.6099,"EPHEMERIS_TYPE":0,"NORAD_CAT_ID":62681,"ELEMENT_SET_NO":999,"REV_AT_EPOCH":14061,"BSTAR":0.00022521,"MEAN_MOTION_DOT":0.00006478,"MEAN_MOTION_DDOT":0}]}
