FLOCK 4G-23             
1 62647U 25009AQ  26194.72851100  .00022688  00000+0  67590-3 0  9992
2 62647  97.3933 276.4140 0003148 175.4511 184.6762 15.34689695 82993
FLOCK 4G-34             
1 62650U 25009AT  26194.75252708  .00006080  00000+0  21357-3 0  9997
2 62650  97.3968 276.2092 0002221 167.0493 193.0805 15.29758699 82971
FLOCK 4G-21             
1 62651U 25009AU  26194.73981404  .00020373  00000+0  64445-3 0  9994
2 62651  97.3996 277.1919 0003098 194.4712 165.6441 15.32804786 83023
FLOCK 4G-31             
1 62652U 25009AV  26194.78224698  .00006172  00000+0  21806-3 0  9990
2 62652  97.3973 276.2109 0001765 159.9108 200.2202 15.29562544 82977
FLOCK 4G-4              
1 62659U 25009BC  26194.75706441  .00020003  00000+0  64713-3 0  9998
2 62659  97.3957 275.9920 0004397 196.9018 163.2078 15.32082621140575
FLOCK 4G-6              
1 62660U 25009BD  26194.77178431  .00005878  00000+0  20527-3 0  9992
2 62660  97.3946 276.0522 0002759 206.4041 153.7060 15.29961553140568
FLOCK 4G-2              
1 62661U 25009BE  26194.76570860  .00006309  00000+0  21777-3 0  9992
2 62661  97.4014 276.6860 0003578 207.4662 152.6390 15.30310499140593
FLOCK 4G-5              
1 62663U 25009BG  26193.78070332  .00006484  00000+0  21985-3 0  9999
2 62663  97.4030 276.1016 0003232 189.2168 170.9014 15.30881733 82850
FLOCK 4G-1              
1 62666U 25009BK  26194.75046719  .00005945  00000+0  20624-3 0  9992
2 62666  97.4028 276.6498 0003858 204.2394 155.8665 15.30170775 82976
FLOCK 4G-14             
1 62667U 25009BL  26194.78114683  .00006349  00000+0  22315-3 0  9990
2 62667  97.4030 276.4779 0004028 198.9013 161.2078 15.29717082 82961
FLOCK 4G-10             
1 62670U 25009BP  26194.79215515  .00006440  00000+0  22561-3 0  9996
2 62670  97.3929 275.7882 0003537 218.5153 141.5836 15.29819610140605
FLOCK 4G-36             
1 62675U 25009BU  26194.78665705  .00006546  00000+0  22946-3 0  9994
2 62675  97.4017 276.4050 0004183 205.0601 155.0437 15.29791839 82964
FLOCK 4G-15             
1 62678U 25009BX  26194.79367297  .00006444  00000+0  22532-3 0  9991
2 62678  97.4021 276.5545 0004440 201.8680 158.2371 15.29882248140613
FLOCK 4G-30             
1 62679U 25009BY  26194.74070676  .00021948  00000+0  67082-3 0  9994
2 62679  97.3923 276.0170 0004263 200.5970 159.5101 15.33880266140612
FLOCK 4G-18             
1 62680U 25009BZ  26194.75344272  .00020568  00000+0  66394-3 0  9995
2 62680  97.4014 276.4277 0006061 215.4988 144.5851 15.32140614140600
FLOCK 4G-17             
1 62681U 25009CA  26194.75482897  .00006478  00000+0  22521-3 0  9990
2 62681  97.3927 275.9877 0003806 219.4865 140.6099 15.30065522140619
